APRIZESAT 2             
1 28366U 04025A   26168.98051885  .00000119  00000+0  50552-4 0  9994
2 28366  98.1015 334.9159 0104356 247.4229 111.5892 14.38036049151758
SAUDICOMSAT 1           
1 28369U 04025D   26168.97869062  .00000289  00000+0  77271-4 0  9995
2 28369  98.5771 179.1314 0032583  23.2967 336.9698 14.55474352164244
SAUDICOMSAT 2           
1 28370U 04025E   26169.02219666  .00000179  00000+0  58100-4 0  9991
2 28370  98.6640 181.2921 0054187 256.8992 102.6150 14.49981634160220
APRIZESAT 1             
1 28372U 04025G   26168.98391748  .00000177  00000+0  55580-4 0  9996
2 28372  98.6302 179.7311 0045165 151.4693 208.8987 14.51777382162029
NANOSAT-1               
1 28493U 04049B   26169.31831192  .00000797  00000+0  11225-3 0  9991
2 28493  98.2278 306.0069 0002792 297.3962  62.6965 14.80161454155612
SAUDICOMSAT 7           
1 31119U 07012C   26168.86350581  .00000335  00000+0  69180-4 0  9992
2 31119  98.3778 143.0090 0055340 193.0583 166.9191 14.66110755 22533
SAUDICOMSAT 6           
1 31121U 07012E   26168.84282595  .00000464  00000+0  98500-4 0  9993
2 31121  98.4098 136.3714 0071016 325.7127  33.9499 14.62559109 20286
SAUDICOMSAT 5           
1 31124U 07012H   26169.17678025  .00000500  00000+0  94614-4 0  9993
2 31124  98.3489 144.0756 0048501 121.6606 238.9342 14.68157445 23743
SAUDICOMSAT 3           
1 31125U 07012J   26168.86349291  .00000682  00000+0  11928-3 0  9996
2 31125  98.3143 144.3042 0040206  51.1711 309.3072 14.70706805 24927
SAUDICOMSAT 4           
1 31127U 07012L   26168.90619762  .00000343  00000+0  72864-4 0  9997
2 31127  98.3983 141.4913 0062083 255.9359 103.4937 14.64512864 21399
APRIZESAT 4             
1 35684U 09041D   26169.20108687  .00000511  00000+0  67644-4 0  9993
2 35684  98.1412 244.5418 0042344 319.6992  40.1085 14.83880470911515
APRIZESAT 3             
1 35686U 09041F   26169.16897168  .00001570  00000+0  13954-3 0  9999
2 35686  98.2064 322.4396 0062802  64.5906 296.1796 14.96244632916520
S-NET D                 
1 43186U 18014G   26169.18760940  .00003626  00000+0  18851-3 0  9997
2 43186  97.5360  73.9721 0008846  27.3828 332.7870 15.16680954458911
S-NET B                 
1 43187U 18014H   26169.19908287  .00003940  00000+0  20465-3 0  9990
2 43187  97.5365  73.9702 0009343  22.2954 337.8684 15.16651341458910
S-NET A                 
1 43188U 18014J   26168.65868170  .00003875  00000+0  20114-3 0  9995
2 43188  97.5378  73.6419 0009280  24.6066 335.5608 15.16685227458839
S-NET C                 
1 43189U 18014K   26169.20296397  .00004098  00000+0  21276-3 0  9992
2 43189  97.5395  74.2579 0010331  14.4475 345.7051 15.16643511457466
SALSAT                  
1 46495U 20068K   26168.99584059  .00006301  00000+0  22102-3 0  9995
2 46495  97.8849 172.1096 0008017 304.7591  55.2892 15.29809762315487
OOV-CUBE (TUBSAT-30)    
1 60240U 24128F   26169.25317337  .00001463  00000+0  12238-3 0  9996
2 60240  61.9932 221.8560 0044511 134.0115 226.4659 15.02777232106274
LPNTSAT-001 (IOD-1)     
1 68408U 26065A   26168.60392418  .00002280  00000+0  11336-3 0  9999
2 68408  97.4013  49.1049 0016616   9.3580 350.7960 15.18539953 12321
